NORAD_CAT_ID,OBJECT_NAME,OBJECT_TYPE,EPOCH,MEAN_MOTION,ECCENTRICITY,INCLINATION,RA_OF_ASC_NODE,ARG_OF_PERICENTER,MEAN_ANOMALY,BSTAR,MEAN_MOTION_DOT,MEAN_MOTION_DDOT,TLE_LINE0,TLE_LINE1,TLE_LINE2,SEMIMAJOR_AXIS,PERIOD,APOGEE,PERIGEE,DECAYED
53167.0,STARLINK-3683,PAYLOAD,2023-02-26 18:25:29,15.08880048,0.0001612,53.2164,78.2834,92.187,267.9306,0.0015088,0.00023833,0.0,0 STARLINK-3683,1 53167U 22083AM  23057.76769984  .00023833  00000-0  15088-2 0  9993,2 53167  53.2164  78.2834 0001612  92.1870 267.9306 15.08880048 35096,6917.758,95.435,540.738,538.508,0.0
53167.0,STARLINK-3683,PAYLOAD,2023-02-27 02:22:24,15.08862909,0.0001628,53.217,76.7971,100.1919,259.9257,0.0010733,0.00016846,0.0,0 STARLINK-3683,1 53167U 22083AM  23058.09889774  .00016846  00000-0  10733-2 0  9998,2 53167  53.2170  76.7971 0001628 100.1919 259.9257 15.08862909 35147,6917.81,95.436,540.802,538.549,0.0
53167.0,STARLINK-3683,PAYLOAD,2023-02-27 05:33:10,15.08870334,0.0001356,53.2164,76.2024,103.6627,256.4516,0.0019097,0.00030261,0.0,0 STARLINK-3683,1 53167U 22083AM  23058.23137521  .00030261  00000-0  19097-2 0  9999,2 53167  53.2164  76.2024 0001356 103.6627 256.4516 15.08870334 34528,6917.788,95.436,540.591,538.715,0.0
53167.0,STARLINK-3683,PAYLOAD,2023-02-27 18:16:15,15.08905742,0.0001709,53.2179,73.8243,84.012,276.1067,0.0037058,0.00059293,0.0,0 STARLINK-3683,1 53167U 22083AM  23058.76128770  .00059293  00000-0  37058-2 0  9996,2 53167  53.2179  73.8243 0001709  84.0120 276.1067 15.08905742 35244,6917.679,95.433,540.727,538.362,0.0
53167.0,STARLINK-3683,PAYLOAD,2023-02-28 00:37:47,15.08878292,0.0001876,53.2172,72.6348,86.6218,273.4989,0.0013493,0.00021274,0.0,0 STARLINK-3683,1 53167U 22083AM  23059.02624507  .00021274  00000-0  13493-2 0  9990,2 53167  53.2172  72.6348 0001876  86.6218 273.4989 15.08878292 35287,6917.763,95.435,540.926,538.331,0.0
53167.0,STARLINK-3683,PAYLOAD,2023-02-28 06:59:19,15.08880888,0.0001808,53.218,71.4454,83.8375,276.2823,0.00087742,0.00013719,0.0,0 STARLINK-3683,1 53167U 22083AM  23059.29119823  .00013719  00000-0  87742-3 0  9993,2 53167  53.2180  71.4454 0001808  83.8375 276.2823 15.08880888 34684,6917.755,95.435,540.871,538.37,0.0
53167.0,STARLINK-3683,PAYLOAD,2023-03-01 10:00:51,15.08941239,0.0001278,53.2177,66.3899,104.5494,255.564,0.0042058,0.00067475,0.0,0 STARLINK-3683,1 53167U 22083AM  23060.41725724  .00067475  00000-0  42058-2 0  9990,2 53167  53.2177  66.3899 0001278 104.5494 255.5640 15.08941239 35495,6917.571,95.431,540.32,538.552,0.0
53167.0,STARLINK-3683,PAYLOAD,2023-03-01 17:57:39,15.09091332,3.22e-05,53.2177,64.9034,173.4317,186.668,0.0057986,0.00093873,0.0,0 STARLINK-3683,1 53167U 22083AM  23060.74837457  .00093873  00000-0  57986-2 0  9990,2 53167  53.2177  64.9034 0000322 173.4317 186.6680 15.09091332 35543,6917.112,95.422,539.2,538.755,0.0
53167.0,STARLINK-3683,PAYLOAD,2023-03-02 03:29:44,15.093817,0.0002662,53.2175,63.1178,116.3483,243.7783,0.010441,0.00172522,0.0,0 STARLINK-3683,1 53167U 22083AM  23061.14565218  .00172522  00000-0  10441-1 0  9991,2 53167  53.2175  63.1178 0002662 116.3483 243.7783 15.09381700 35607,6916.225,95.403,539.931,536.249,0.0
53167.0,STARLINK-3683,PAYLOAD,2023-03-02 09:51:06,15.09457287,0.0001678,53.2182,61.9257,100.0267,260.0915,0.0090202,0.00148813,0.0,0 STARLINK-3683,1 53167U 22083AM  23061.41049504  .00148813  00000-0  90202-2 0  9996,2 53167  53.2182  61.9257 0001678 100.0267 260.0915 15.09457287 35642,6915.994,95.399,539.02,536.699,0.0
53167.0,STARLINK-3683,PAYLOAD,2023-03-03 09:41:13,15.09429379,0.0001776,53.2189,57.4644,82.6052,277.5142,-0.0041158,-0.00066249,0.0,0 STARLINK-3683,1 53167U 22083AM  23062.40362469 -.00066249  00000-0 -41158-2 0  9994,2 53167  53.2189  57.4644 0001776  82.6052 277.5142 15.09429379 35797,6916.079,95.4,539.173,536.716,0.0
53167.0,STARLINK-3683,PAYLOAD,2023-03-03 16:02:39,15.09308535,0.0001089,53.2188,56.2737,85.3627,274.749,-0.0067336,-0.00107226,0.0,0 STARLINK-3683,1 53167U 22083AM  23062.66851339 -.00107226  00000-0 -67336-2 0  9998,2 53167  53.2188  56.2737 0001089  85.3627 274.7490 15.09308535 35831,6916.449,95.408,539.067,537.56,0.0
53167.0,STARLINK-3683,PAYLOAD,2023-03-04 12:42:36,15.08932072,0.00016,53.2183,52.4076,101.4828,258.6344,-0.0059604,-0.00094147,0.0,0 STARLINK-3683,1 53167U 22083AM  23063.52959442 -.00094147  00000-0 -59604-2 0  9994,2 53167  53.2183  52.4076 0001600 101.4828 258.6344 15.08932072 35963,6917.599,95.432,540.571,538.357,0.0
53167.0,STARLINK-3683,PAYLOAD,2023-03-04 15:53:24,15.08872698,0.0001573,53.2186,51.8132,96.162,263.9551,-0.0054663,-0.0008632,0.0,0 STARLINK-3683,1 53167U 22083AM  23063.66208847 -.00086320  00000-0 -54663-2 0  9999,2 53167  53.2186  51.8132 0001573  96.1620 263.9551 15.08872698 35989,6917.78,95.435,540.734,538.557,0.0
53167.0,STARLINK-3683,PAYLOAD,2023-03-04 23:50:20,15.08843916,0.0001492,53.2189,50.3271,100.2101,259.9059,-0.0022788,-0.00036376,0.0,0 STARLINK-3683,1 53167U 22083AM  23063.99329846 -.00036376  00000-0 -22788-2 0  9997,2 53167  53.2189  50.3271 0001492 100.2101 259.9059 15.08843916 36037,6917.868,95.437,540.766,538.701,0.0
53167.0,STARLINK-3683,PAYLOAD,2023-03-05 06:11:53,15.08850191,0.0001732,53.2187,49.1379,106.6613,253.457,-2.5067e-05,-6.87e-06,0.0,0 STARLINK-3683,1 53167U 22083AM  23064.25826347 -.00000687  00000-0 -25067-4 0  9996,2 53167  53.2187  49.1379 0001732 106.6613 253.4570 15.08850191 36079,6917.849,95.437,540.912,538.516,0.0
53167.0,STARLINK-3683,PAYLOAD,2023-03-05 15:44:13,15.08845499,0.0001583,53.2182,47.3535,99.2796,260.8375,0.00088225,0.00013783,0.0,0 STARLINK-3683,1 53167U 22083AM  23064.65571009  .00013783  00000-0  88225-3 0  9995,2 53167  53.2182  47.3535 0001583  99.2796 260.8375 15.08845499 36138,6917.864,95.437,540.824,538.633,0.0
53167.0,STARLINK-3683,PAYLOAD,2023-03-06 21:56:32,15.08844341,0.000201,53.2182,41.7001,97.9792,262.1428,0.00019028,2.742e-05,0.0,0 STARLINK-3683,1 53167U 22083AM  23065.91426606  .00002742  00000-0  19028-3 0  9995,2 53167  53.2182  41.7001 0002010  97.9792 262.1428 15.08844341 35689,6917.867,95.437,541.123,538.342,0.0
53167.0,STARLINK-3683,PAYLOAD,2023-03-07 04:18:04,15.08845694,0.0001497,53.2193,40.5123,106.5597,253.556,7.0544e-05,8.35e-06,0.0,0 STARLINK-3683,1 53167U 22083AM  23066.17922309  .00000835  00000-0  70544-4 0  9997,2 53167  53.2193  40.5123 0001497 106.5597 253.5560 15.08845694 36360,6917.863,95.437,540.764,538.692,0.0
53167.0,STARLINK-3683,PAYLOAD,2023-03-07 07:28:50,15.08855693,0.0001446,53.2182,39.9162,100.9219,259.1936,0.00033563,5.06e-05,0.0,0 STARLINK-3683,1 53167U 22083AM  23066.31169987  .00005060  00000-0  33563-3 0  9992,2 53167  53.2182  39.9162 0001446 100.9219 259.1936 15.08855693 36387,6917.832,95.437,540.698,538.697,0.0
53167.0,STARLINK-3683,PAYLOAD,2023-03-07 15:25:46,15.08826469,0.0001211,53.2178,38.4323,77.5372,282.5755,-0.00035219,-5.886e-05,0.0,0 STARLINK-3683,1 53167U 22083AM  23066.64290509 -.00005886  00000-0 -35219-3 0  9991,2 53167  53.2178  38.4323 0001211  77.5372 282.5755 15.08826469 36438,6917.922,95.438,540.625,538.949,0.0
53167.0,STARLINK-3683,PAYLOAD,2023-03-07 21:47:19,15.08830635,0.0001069,53.2195,37.2414,81.6179,278.4934,-0.0001452,-2.597e-05,0.0,0 STARLINK-3683,1 53167U 22083AM  23066.90786622 -.00002597  00000-0 -14520-3 0  9994,2 53167  53.2195  37.2414 0001069  81.6179 278.4934 15.08830635 35833,6917.909,95.438,540.514,539.034,0.0
53167.0,STARLINK-3683,PAYLOAD,2023-03-08 04:08:51,15.08855985,0.0001397,53.219,36.0524,85.8797,274.2355,0.00065471,0.00010152,0.0,0 STARLINK-3683,1 53167U 22083AM  23067.17282120  .00010152  00000-0  65471-3 0  9993,2 53167  53.2190  36.0524 0001397  85.8797 274.2355 15.08855985 36515,6917.832,95.437,540.663,538.73,0.0
53167.0,STARLINK-3683,PAYLOAD,2023-03-08 15:16:33,15.08852719,8.98e-05,53.2184,33.971,92.996,267.1135,0.00054839,8.454e-05,0.0,0 STARLINK-3683,1 53167U 22083AM  23067.63649819  .00008454  00000-0  54839-3 0  9994,2 53167  53.2184  33.9710 0000898  92.9960 267.1135 15.08852719 36583,6917.842,95.437,540.328,539.085,0.0
53167.0,STARLINK-3683,PAYLOAD,2023-03-08 21:38:06,15.08857571,0.0001656,53.2181,32.7798,102.2098,257.908,0.00095066,0.00014881,0.0,0 STARLINK-3683,1 53167U 22083AM  23067.90146085  .00014881  00000-0  95066-3 0  9999,2 53167  53.2181  32.7798 0001656 102.2098 257.9080 15.08857571 35983,6917.827,95.436,540.837,538.546,0.0
53167.0,STARLINK-3683,PAYLOAD,2023-03-09 21:28:52,15.08857803,0.0001775,53.2198,28.3226,104.8877,255.2312,0.00083315,0.00013003,0.0,0 STARLINK-3683,1 53167U 22083AM  23068.89505578  .00013003  00000-0  83315-3 0  9993,2 53167  53.2198  28.3226 0001775 104.8877 255.2312 15.08857803 36138,6917.826,95.436,540.919,538.463,0.0
53167.0,STARLINK-3683,PAYLOAD,2023-03-10 03:50:24,15.08867953,0.0001255,53.219,27.1317,99.874,260.2394,0.00081941,0.00012787,0.0,0 STARLINK-3683,1 53167U 22083AM  23069.16001016  .00012787  00000-0  81941-3 0  9993,2 53167  53.2190  27.1317 0001255  99.8740 260.2394 15.08867953 36811,6917.795,95.436,540.528,538.792,0.0
53167.0,STARLINK-3683,PAYLOAD,2023-03-11 02:05:49,15.08836333,0.0001584,53.219,22.9715,136.6538,223.4579,9.1299e-05,1.165e-05,0.0,0 STARLINK-3683,1 53167U 22083AM  23070.08737658  .00001165  00000-0  91299-4 0  9990,2 53167  53.2190  22.9715 0001584 136.6538 223.4579 15.08836333 36955,6917.892,95.438,540.852,538.661,0.0
53167.0,STARLINK-3683,PAYLOAD,2023-03-11 03:41:12,15.08839251,0.0001561,53.2194,22.6741,133.6567,226.4555,9.0343e-05,1.15e-05,0.0,0 STARLINK-3683,1 53167U 22083AM  23070.15361682  .00001150  00000-0  90343-4 0  9991,2 53167  53.2194  22.6741 0001561 133.6567 226.4555 15.08839251 36329,6917.883,95.438,540.828,538.668,0.0
53167.0,STARLINK-3683,PAYLOAD,2023-03-11 22:45:51,15.08826139,0.0001311,53.2194,19.1078,100.2147,259.8993,0.00026136,3.873e-05,0.0,0 STARLINK-3683,1 53167U 22083AM  23070.94850832  .00003873  00000-0  26136-3 0  9990,2 53167  53.2194  19.1078 0001311 100.2147 259.8993 15.08826139 36440,6917.923,95.438,540.695,538.881,0.0
